[{"OBJECT_NAME":"CENTAURI-1","OBJECT_ID":"2018-099BD","EPOCH":"2026-03-09T22:09:49.248288","MEAN_MOTION":15.15253131,"ECCENTRICITY":0.00131381,"INCLINATION":97.4356,"RA_OF_ASC_NODE":122.787,"ARG_OF_PERICENTER":317.3233,"MEAN_ANOMALY":42.6978,"EPHEMERIS_TYPE":0,"CLASSIFICATION_TYPE":"U","NORAD_CAT_ID":43809,"ELEMENT_SET_NO":999,"REV_AT_EPOCH":39746,"BSTAR":0.00036885866,"MEAN_MOTION_DOT":6.886e-5,"MEAN_MOTION_DDOT":0},{"OBJECT_NAME":"STARLINK-2298","OBJECT_ID":"2021-024AX","EPOCH":"2026-03-10T00:00:02.999808","MEAN_MOTION":15.15852398,"ECCENTRICITY":0.00022088,"INCLINATION":53.0935,"RA_OF_ASC_NODE":330.2189,"ARG_OF_PERICENTER":83.1069,"MEAN_ANOMALY":79.3652,"EPHEMERIS_TYPE":0,"CLASSIFICATION_TYPE":"U","NORAD_CAT_ID":48022,"ELEMENT_SET_NO":999,"REV_AT_EPOCH":575,"BSTAR":0.0020729399,"MEAN_MOTION_DOT":0.00040038,"MEAN_MOTION_DDOT":0}]
